start=new Date('2021-10-04T00:00:00.000Z').valueOf();
sats=[{"NORAD_CAT_ID":"48666","OBJECT_TYPE":"PAYLOAD","PERIOD":"95.593","SITE":"AFETR","CENTER_NAME":"EARTH","ECCENTRICITY":"0.00019110","COUNTRY_CODE":"US","EPHEMERIS_TYPE":"0","OBJECT_NAME":"STARLINK-2666","RCS_SIZE":"LARGE","REV_AT_EPOCH":"1993","EPOCH":"2021-10-03T10:09:25.842528","OBJECT_ID":"2021-044AE","ELEMENT_SET_NO":"999","REF_FRAME":"TEME","SEMIMAJOR_AXIS":"6925.381","MEAN_MOTION":"15.06389419","TLE_LINE1":"1 48666U 21044AE  21276.42321577  .00000843  00000-0  75548-4 0  9998","FILE":"3142499","MEAN_ANOMALY":"289.8164","DECAY_DATE":null,"ARG_OF_PERICENTER":"70.3031","RA_OF_ASC_NODE":"176.2881","APOAPSIS":"548.569","GP_ID":"186103703","CLASSIFICATION_TYPE":"U","BSTAR":"0.00007554800000","MEAN_MOTION_DDOT":"0.0000000000000","INCLINATION":"53.0548","TIME_SYSTEM":"UTC","MEAN_ELEMENT_THEORY":"SGP4","PERIAPSIS":"545.923","TLE_LINE2":"2 48666  53.0548 176.2881 0001911  70.3031 289.8164 15.06389419 19932","LAUNCH_DATE":"2021-05-26","MEAN_MOTION_DOT":"0.00000843"},{"DECAY_DATE":null,"ARG_OF_PERICENTER":"72.8370","RA_OF_ASC_NODE":"174.4230","APOAPSIS":"548.647","GP_ID":"186143399","CLASSIFICATION_TYPE":"U","BSTAR":"0.00003527400000","MEAN_MOTION_DDOT":"0.0000000000000","INCLINATION":"53.0550","TIME_SYSTEM":"UTC","MEAN_ELEMENT_THEORY":"SGP4","PERIAPSIS":"545.851","LAUNCH_DATE":"2021-05-26","TLE_LINE2":"2 48667  53.0550 174.4230 0002019  72.8370 287.2840 15.06388430 20002","MEAN_MOTION_DOT":"0.00000244","NORAD_CAT_ID":"48667","OBJECT_TYPE":"PAYLOAD","PERIOD":"95.593","CENTER_NAME":"EARTH","SITE":"AFETR","ECCENTRICITY":"0.00020190","EPHEMERIS_TYPE":"0","COUNTRY_CODE":"US","OBJECT_NAME":"STARLINK-2735","RCS_SIZE":"LARGE","REV_AT_EPOCH":"2000","EPOCH":"2021-10-03T20:05:16.853568","OBJECT_ID":"2021-044AF","ELEMENT_SET_NO":"999","REF_FRAME":"TEME","SEMIMAJOR_AXIS":"6925.384","MEAN_MOTION":"15.06388430","TLE_LINE1":"1 48667U 21044AF  21276.83700062  .00000244  00000-0  35274-4 0  9991","FILE":"3143202","MEAN_ANOMALY":"287.2840"},{"CLASSIFICATION_TYPE":"U","TIME_SYSTEM":"UTC","INCLINATION":"53.0549","MEAN_MOTION_DDOT":"0.0000000000000","BSTAR":"0.00008595900000","PERIAPSIS":"545.878","MEAN_ELEMENT_THEORY":"SGP4","MEAN_MOTION_DOT":"0.00000999","TLE_LINE2":"2 48668  53.0549 176.2298 0001924  71.0158 289.1039 15.06400990 19942","LAUNCH_DATE":"2021-05-26","DECAY_DATE":null,"RA_OF_ASC_NODE":"176.2298","APOAPSIS":"548.543","ARG_OF_PERICENTER":"71.0158","GP_ID":"186103270","OBJECT_ID":"2021-044AG","EPOCH":"2021-10-03T10:26:43.142784","REF_FRAME":"TEME","ELEMENT_SET_NO":"999","TLE_LINE1":"1 48668U 21044AG  21276.43522156  .00000999  00000-0  85959-4 0  9996","FILE":"3142499","MEAN_MOTION":"15.06400990","SEMIMAJOR_AXIS":"6925.346","MEAN_ANOMALY":"289.1039","SITE":"AFETR","CENTER_NAME":"EARTH","PERIOD":"95.592","OBJECT_TYPE":"PAYLOAD","NORAD_CAT_ID":"48668","ECCENTRICITY":"0.00019240","OBJECT_NAME":"STARLINK-2738","COUNTRY_CODE":"US","EPHEMERIS_TYPE":"0","REV_AT_EPOCH":"1994","RCS_SIZE":"LARGE"},{"DECAY_DATE":null,"APOAPSIS":"548.831","RA_OF_ASC_NODE":"174.4942","ARG_OF_PERICENTER":"80.8976","GP_ID":"186143604","CLASSIFICATION_TYPE":"U","INCLINATION":"53.0493","TIME_SYSTEM":"UTC","MEAN_MOTION_DDOT":"0.0000000000000","BSTAR":"-0.00007687700000","PERIAPSIS":"545.620","MEAN_ELEMENT_THEORY":"SGP4","LAUNCH_DATE":"2021-05-26","TLE_LINE2":"2 48669  53.0493 174.4942 0002318  80.8976 279.2275 15.06396041 19999","MEAN_MOTION_DOT":"-0.00001427","PERIOD":"95.592","SITE":"AFETR","CENTER_NAME":"EARTH","NORAD_CAT_ID":"48669","OBJECT_TYPE":"PAYLOAD","ECCENTRICITY":"0.00023180","COUNTRY_CODE":"US","EPHEMERIS_TYPE":"0","OBJECT_NAME":"STARLINK-2707","REV_AT_EPOCH":"1999","RCS_SIZE":"LARGE","EPOCH":"2021-10-03T19:54:39.246624","OBJECT_ID":"2021-044AH","REF_FRAME":"TEME","ELEMENT_SET_NO":"999","FILE":"3143202","TLE_LINE1":"1 48669U 21044AH  21276.82962091 -.00001427  00000-0 -76877-4 0  9994","SEMIMAJOR_AXIS":"6925.361","MEAN_MOTION":"15.06396041","MEAN_ANOMALY":"279.2275"},{"RCS_SIZE":"LARGE","REV_AT_EPOCH":"1999","OBJECT_NAME":"STARLINK-2763","COUNTRY_CODE":"US","EPHEMERIS_TYPE":"0","ECCENTRICITY":"0.00018720","OBJECT_TYPE":"PAYLOAD","NORAD_CAT_ID":"48670","SITE":"AFETR","CENTER_NAME":"EARTH","PERIOD":"95.593","MEAN_ANOMALY":"283.6123","MEAN_MOTION":"15.06392073","SEMIMAJOR_AXIS":"6925.373","TLE_LINE1":"1 48670U 21044AJ  21276.82593088 -.00002275  00000-0 -13386-3 0  9999","FILE":"3143202","ELEMENT_SET_NO":"999","REF_FRAME":"TEME","OBJECT_ID":"2021-044AJ","EPOCH":"2021-10-03T19:49:20.428032","GP_ID":"186144035","ARG_OF_PERICENTER":"76.5074","APOAPSIS":"548.534","RA_OF_ASC_NODE":"174.5080","DECAY_DATE":null,"MEAN_MOTION_DOT":"-0.00002275","LAUNCH_DATE":"2021-05-26","TLE_LINE2":"2 48670  53.0490 174.5080 0001872  76.5074 283.6123 15.06392073 19999","MEAN_ELEMENT_THEORY":"SGP4","PERIAPSIS":"545.941","BSTAR":"-0.00013386000000","MEAN_MOTION_DDOT":"0.0000000000000","TIME_SYSTEM":"UTC","INCLINATION":"53.0490","CLASSIFICATION_TYPE":"U"},{"ECCENTRICITY":"0.00015960","PERIOD":"95.593","SITE":"AFETR","CENTER_NAME":"EARTH","NORAD_CAT_ID":"48671","OBJECT_TYPE":"PAYLOAD","REV_AT_EPOCH":"2000","RCS_SIZE":"LARGE","EPHEMERIS_TYPE":"0","COUNTRY_CODE":"US","OBJECT_NAME":"STARLINK-2745","REF_FRAME":"TEME","ELEMENT_SET_NO":"999","EPOCH":"2021-10-03T21:19:35.198112","OBJECT_ID":"2021-044AK","MEAN_ANOMALY":"280.0774","TLE_LINE1":"1 48671U 21044AK  21276.88860183 -.00000548  00000-0 -17903-4 0  9990","FILE":"3143202","SEMIMAJOR_AXIS":"6925.379","MEAN_MOTION":"15.06390127","DECAY_DATE":null,"GP_ID":"186143712","RA_OF_ASC_NODE":"174.1980","APOAPSIS":"548.349","ARG_OF_PERICENTER":"80.0395","INCLINATION":"53.0555","TIME_SYSTEM":"UTC","MEAN_MOTION_DDOT":"0.0000000000000","BSTAR":"-0.00001790300000","CLASSIFICATION_TYPE":"U","TLE_LINE2":"2 48671  53.0555 174.1980 0001596  80.0395 280.0774 15.06390127 20001","LAUNCH_DATE":"2021-05-26","MEAN_MOTION_DOT":"-0.00000548","PERIAPSIS":"546.139","MEAN_ELEMENT_THEORY":"SGP4"},{"ARG_OF_PERICENTER":"66.6377","RA_OF_ASC_NODE":"176.2964","APOAPSIS":"548.682","GP_ID":"186103596","DECAY_DATE":null,"MEAN_ELEMENT_THEORY":"SGP4","PERIAPSIS":"545.823","LAUNCH_DATE":"2021-05-26","TLE_LINE2":"2 48672  53.0555 176.2964 0002064  66.6377 293.4829 15.06387370 19933","MEAN_MOTION_DOT":"-0.00001133","CLASSIFICATION_TYPE":"U","BSTAR":"-0.00005720500000","MEAN_MOTION_DDOT":"0.0000000000000","INCLINATION":"53.0555","TIME_SYSTEM":"UTC","EPHEMERIS_TYPE":"0","COUNTRY_CODE":"US","OBJECT_NAME":"STARLINK-2705","RCS_SIZE":"LARGE","REV_AT_EPOCH":"1993","NORAD_CAT_ID":"48672","OBJECT_TYPE":"PAYLOAD","PERIOD":"95.593","SITE":"AFETR","CENTER_NAME":"EARTH","ECCENTRICITY":"0.00020640","SEMIMAJOR_AXIS":"6925.387","MEAN_MOTION":"15.06387370","FILE":"3142499","TLE_LINE1":"1 48672U 21044AL  21276.42048955 -.00001133  00000-0 -57205-4 0  9996","MEAN_ANOMALY":"293.4829","EPOCH":"2021-10-03T10:05:30.297120","OBJECT_ID":"2021-044AL","ELEMENT_SET_NO":"999","REF_FRAME":"TEME"},{"SITE":"AFETR","CENTER_NAME":"EARTH","PERIOD":"95.593","OBJECT_TYPE":"PAYLOAD","NORAD_CAT_ID":"48673","ECCENTRICITY":"0.00016850","OBJECT_NAME":"STARLINK-2711","EPHEMERIS_TYPE":"0","COUNTRY_CODE":"US","REV_AT_EPOCH":"2000","RCS_SIZE":"LARGE","OBJECT_ID":"2021-044AM","EPOCH":"2021-10-03T21:08:57.619680","REF_FRAME":"TEME","ELEMENT_SET_NO":"999","TLE_LINE1":"1 48673U 21044AM  21276.88122245 -.00001517  00000-0 -82984-4 0  9990","FILE":"3143202","MEAN_MOTION":"15.06393834","SEMIMAJOR_AXIS":"6925.367","MEAN_ANOMALY":"281.3279","DECAY_DATE":null,"APOAPSIS":"548.399","RA_OF_ASC_NODE":"174.2298","ARG_OF_PERICENTER":"78.7899","GP_ID":"186143292","CLASSIFICATION_TYPE":"U","TIME_SYSTEM":"UTC","INCLINATION":"53.0539","MEAN_MOTION_DDOT":"0.0000000000000","BSTAR":"-0.00008298400000","PERIAPSIS":"546.066","MEAN_ELEMENT_THEORY":"SGP4","MEAN_MOTION_DOT":"-0.00001517","TLE_LINE2":"2 48673  53.0539 174.2298 0001685  78.7899 281.3279 15.06393834 20002","LAUNCH_DATE":"2021-05-26"},{"TLE_LINE1":"1 48674U 21044AN  21276.74484845  .00000348  00000-0  42249-4 0  9992","FILE":"3143202","SEMIMAJOR_AXIS":"6925.370","MEAN_MOTION":"15.06393155","MEAN_ANOMALY":"290.8113","EPOCH":"2021-10-03T17:52:34.906080","OBJECT_ID":"2021-044AN","REF_FRAME":"TEME","ELEMENT_SET_NO":"999","EPHEMERIS_TYPE":"0","COUNTRY_CODE":"US","OBJECT_NAME":"STARLINK-2712","REV_AT_EPOCH":"1998","RCS_SIZE":"LARGE","PERIOD":"95.593","SITE":"AFETR","CENTER_NAME":"EARTH","NORAD_CAT_ID":"48674","OBJECT_TYPE":"PAYLOAD","ECCENTRICITY":"0.00020170","PERIAPSIS":"545.838","MEAN_ELEMENT_THEORY":"SGP4","LAUNCH_DATE":"2021-05-26","TLE_LINE2":"2 48674  53.0549 174.8422 0002017  69.3092 290.8113 15.06393155 19983","MEAN_MOTION_DOT":"0.00000348","CLASSIFICATION_TYPE":"U","INCLINATION":"53.0549","TIME_SYSTEM":"UTC","BSTAR":"0.00004224900000","MEAN_MOTION_DDOT":"0.0000000000000","APOAPSIS":"548.631","RA_OF_ASC_NODE":"174.8422","ARG_OF_PERICENTER":"69.3092","GP_ID":"186143944","DECAY_DATE":null},{"CLASSIFICATION_TYPE":"U","TIME_SYSTEM":"UTC","INCLINATION":"53.0561","BSTAR":"-0.00007649800000","MEAN_MOTION_DDOT":"0.0000000000000","PERIAPSIS":"546.014","MEAN_ELEMENT_THEORY":"SGP4","MEAN_MOTION_DOT":"-0.00001421","LAUNCH_DATE":"2021-05-26","TLE_LINE2":"2 48675  53.0561 174.2612 0001760  73.2922 286.8260 15.06393664 20001","DECAY_DATE":null,"APOAPSIS":"548.452","RA_OF_ASC_NODE":"174.2612","ARG_OF_PERICENTER":"73.2922","GP_ID":"186143400","OBJECT_ID":"2021-044AP","EPOCH":"2021-10-03T20:58:20.894016","REF_FRAME":"TEME","ELEMENT_SET_NO":"999","FILE":"3143202","TLE_LINE1":"1 48675U 21044AP  21276.87385294 -.00001421  00000-0 -76498-4 0  9993","MEAN_MOTION":"15.06393664","SEMIMAJOR_AXIS":"6925.368","MEAN_ANOMALY":"286.8260","SITE":"AFETR","CENTER_NAME":"EARTH","PERIOD":"95.593","OBJECT_TYPE":"PAYLOAD","NORAD_CAT_ID":"48675","ECCENTRICITY":"0.00017600","OBJECT_NAME":"STARLINK-2737","COUNTRY_CODE":"US","EPHEMERIS_TYPE":"0","REV_AT_EPOCH":"2000","RCS_SIZE":"LARGE"}];
